1 00022U 59009A   23326.45246121  .00010067  00000-0  64488-3 0  9995
2 00022  50.2802 323.0293 0121778  22.6676 337.9589 15.03131419658113
1 00022U 59009A   23327.44967310  .00012032  00000-0  76617-3 0  9996
2 00022  50.2799 318.2915 0121717  26.5429 334.1686 15.03156314658261
1 00022U 59009A   23327.84855311  .00011167  00000-0  71253-3 0  9996
2 00022  50.2799 316.3965 0121697  28.0923 332.6525 15.03165070658329
1 00022U 59009A   23328.44686807  .00010935  00000-0  69796-3 0  9996
2 00022  50.2799 313.5538 0121666  30.4105 330.3831 15.03179636658417
1 00022U 59009A   23328.91222026  .00011487  00000-0  73187-3 0  9999
2 00022  50.2799 311.3427 0121639  32.2194 328.6115 15.03191053658487
1 00022U 59009A   23329.44404646  .00012336  00000-0  78415-3 0  9991
2 00022  50.2799 308.8160 0121588  34.2820 326.5903 15.03205303658568
1 00022U 59009A   23329.90938917  .00019325  00000-0  12151-2 0  9994
2 00022  50.2799 306.6049 0121549  36.0919 324.8160 15.03226687658638
1 00022U 59009A   23330.37472827  .00012106  00000-0  76951-3 0  9999
2 00022  50.2798 304.3939 0121522  37.8923 323.0504 15.03231718658707
1 00022U 59009A   23330.90653887  .00010035  00000-0  64141-3 0  9992
2 00022  50.2798 301.8668 0121498  39.9629 321.0186 15.03244665658783
1 00022U 59009A   23331.37186914  .00009595  00000-0  61404-3 0  9994
2 00022  50.2798 299.6556 0121467  41.7710 319.2436 15.03256261658851
1 00022U 59009A   23331.90367072  .00012273  00000-0  77909-3 0  9993
2 00022  50.2798 297.1287 0121452  43.8373 317.2140 15.03272265658938
1 00022U 59009A   23332.36899271  .00012634  00000-0  80115-3 0  9999
2 00022  50.2799 294.9175 0121423  45.6478 315.4346 15.03284777659002
1 00022U 59009A   23332.76783691  .00013164  00000-0  83366-3 0  9991
2 00022  50.2800 293.0223 0121401  47.1971 313.9110 15.03295948659060
1 00022U 59009A   23333.36609705  .00012844  00000-0  81361-3 0  9998
2 00022  50.2802 290.1795 0121357  49.5161 311.6292 15.03312821659157
1 00022U 59009A   23335.82554001  .00013564  00000-0  85679-3 0  9995
2 00022  50.2797 278.4928 0121177  59.0778 302.2019 15.03379471659525
1 00022U 59009A   23336.29082499  .00025668  00000-0  15996-2 0  9996
2 00022  50.2795 276.2813 0121110  60.8915 300.4098 15.03409150659594
1 00022U 59009A   23336.88904427  .00011012  00000-0  69916-3 0  9995
2 00022  50.2793 273.4382 0121128  63.2045 298.1235 15.03410747659682
1 00022U 59009A   23337.28785274  .00011162  00000-0  70826-3 0  9995
2 00022  50.2792 271.5429 0121093  64.7659 296.5787 15.03422130659740
1 00022U 59009A   23338.28486470  .00008970  00000-0  57314-3 0  9992
2 00022  50.2792 266.8041 0121059  68.6385 292.7435 15.03440352659898
1 00022U 59009A   23338.88306500  .00008687  00000-0  55562-3 0  9991
2 00022  50.2792 263.9606 0121013  70.9666 290.4348 15.03451834659986
1 00022U 59009A   23339.28186298  .00008009  00000-0  51384-3 0  9992
2 00022  50.2792 262.0652 0121001  72.5070 288.9063 15.03458106660045
1 00022U 59009A   23339.88005575  .00007404  00000-0  47655-3 0  9990
2 00022  50.2792 259.2219 0120960  74.8329 286.5963 15.03468109660134
1 00022U 59009A   23340.27884873  .00007047  00000-0  45451-3 0  9996
2 00022  50.2791 257.3265 0120957  76.3741 285.0646 15.03474413660197
1 00022U 59009A   23340.94350018  .00006162  00000-0  39997-3 0  9994
2 00022  50.2791 254.1672 0120926  78.9553 282.4970 15.03483051660299
1 00022U 59009A   23341.20935971  .00005479  00000-0  35797-3 0  9995
2 00022  50.2790 252.9035 0120927  79.9850 281.4722 15.03485551660335
1 00022U 59009A   23342.53864823  .00005759  00000-0  37503-3 0  9997
2 00022  50.2792 246.5847 0120897  85.1366 276.3375 15.03501576660539
1 00022U 59009A   23342.87096800  .00005558  00000-0  36267-3 0  9999
2 00022  50.2792 245.0050 0120889  86.4317 275.0451 15.03505010660583
1 00022U 59009A   23343.53560439  .00005320  00000-0  34799-3 0  9992
2 00022  50.2792 241.8457 0120870  89.0140 272.4656 15.03512178660683
1 00022U 59009A   23343.86792120  .00004840  00000-0  31844-3 0  9996
2 00022  50.2792 240.2661 0120870  90.3056 271.1746 15.03515231660739
1 00022U 59009A   23344.53255218  .00004517  00000-0  29849-3 0  9996
2 00022  50.2791 237.1069 0120855  92.8862 268.5927 15.03521971660830
1 00022U 59009A   23344.86486616  .00004069  00000-0  27098-3 0  9996
2 00022  50.2790 235.5273 0120851  94.1666 267.3107 15.03525034660887
1 00022U 59009A   23345.52949238  .00004124  00000-0  27430-3 0  9996
2 00022  50.2789 232.3681 0120836  96.7500 264.7218 15.03531390660988
1 00022U 59009A   23345.86180464  .00004379  00000-0  28994-3 0  9999
2 00022  50.2788 230.7886 0120836  98.0265 263.4417 15.03534673661030
1 00022U 59009A   23346.52642628  .00004557  00000-0  30086-3 0  9991
2 00022  50.2788 227.6294 0120813 100.6083 260.8501 15.03540884661138
1 00022U 59009A   23346.85873614  .00004765  00000-0  31361-3 0  9996
2 00022  50.2786 226.0498 0120808 101.8975 259.5551 15.03544051661187
1 00022U 59009A   23347.52335267  .00005123  00000-0  33553-3 0  9992
2 00022  50.2785 222.8903 0120791 104.4918 256.9468 15.03550832661281
1 00022U 59009A   23347.85565986  .00005297  00000-0  34618-3 0  9996
2 00022  50.2781 221.3107 0120795 105.7696 255.6614 15.03553867661334
1 00022U 59009A   23348.52027006  .00005808  00000-0  37748-3 0  9992
2 00022  50.2779 218.1513 0120779 108.3523 253.0608 15.03562707661435
1 00022U 59009A   23348.91903390  .00005644  00000-0  36738-3 0  9990
2 00022  50.2779 216.2556 0120765 109.9002 251.5008 15.03567768661490
1 00022U 59009A   23349.58363655  .00005582  00000-0  36347-3 0  9995
2 00022  50.2776 213.0962 0120744 112.4670 248.9119 15.03577044661592
1 00022U 59009A   23349.84947576  .00005736  00000-0  37291-3 0  9994
2 00022  50.2776 211.8323 0120730 113.4933 247.8759 15.03581686661637
1 00022U 59009A   23350.51407143  .00006055  00000-0  39238-3 0  9999
2 00022  50.2774 208.6728 0120698 116.0779 245.2652 15.03592242661733
1 00022U 59009A   23350.84636788  .00005236  00000-0  34213-3 0  9992
2 00022  50.2774 207.0927 0120699 117.3609 243.9686 15.03595301661780
1 00022U 59009A   23351.57741611  .00007266  00000-0  46649-3 0  9996
2 00022  50.2774 203.6171 0120669 120.1990 241.0975 15.03607835661893
1 00022U 59009A   23351.90970860  .00008500  00000-0  54208-3 0  9995
2 00022  50.2774 202.0371 0120661 121.4841 239.7967 15.03614344661943
1 00022U 59009A   23352.57428934  .00009153  00000-0  58192-3 0  9990
2 00022  50.2775 198.8774 0120643 124.0589 237.1884 15.03626235662045
1 00022U 59009A   23352.84012010  .00008913  00000-0  56718-3 0  9999
2 00022  50.2775 197.6135 0120641 125.0898 236.1435 15.03630349662081
1 00022U 59009A   23353.57114834  .00009868  00000-0  62539-3 0  9995
2 00022  50.2776 194.1376 0120601 127.9119 233.2808 15.03646818662196
1 00022U 59009A   23354.50153585  .00010390  00000-0  65710-3 0  9991
2 00022  50.2779 189.7138 0120544 131.5294 229.6073 15.03667707662335
1 00022U 59009A   23354.90026902  .00010501  00000-0  66375-3 0  9999
2 00022  50.2781 187.8176 0120519 133.0888 228.0224 15.03676755662397
1 00022U 59009A   23355.56481876  .00009616  00000-0  60938-3 0  9991
2 00022  50.2778 184.6579 0120473 135.6578 225.4098 15.03691334662499
1 00022U 59009A   23355.83063657  .00010041  00000-0  63532-3 0  9991
2 00022  50.2777 183.3940 0120451 136.6891 224.3604 15.03697810662532
1 00022U 59009A   23356.56163043  .00011235  00000-0  70806-3 0  9990
2 00022  50.2773 179.9182 0120395 139.5065 221.4921 15.03715318662645
1 00022U 59009A   23356.89389751  .00011201  00000-0  70588-3 0  9992
2 00022  50.2772 178.3383 0120386 140.7963 220.1784 15.03722428662699
1 00022U 59009A   23357.55842644  .00012712  00000-0  79791-3 0  9994
2 00022  50.2769 175.1784 0120343 143.3544 217.5713 15.03739393662794
1 00022U 59009A   23357.89068796  .00013227  00000-0  82912-3 0  9990
2 00022  50.2769 173.5981 0120345 144.6449 216.2557 15.03747712662847
1 00022U 59009A   23358.55520489  .00014040  00000-0  87842-3 0  9997
2 00022  50.2769 170.4379 0120295 147.2118 213.6371 15.03766000662947
1 00022U 59009A   23358.88746001  .00014158  00000-0  88544-3 0  9993
2 00022  50.2770 168.8575 0120268 148.5056 212.3166 15.03775164662997
1 00022U 59009A   23359.55196361  .00013756  00000-0  86055-3 0  9994
2 00022  50.2772 165.6971 0120221 151.0870 209.6812 15.03794196663091
1 00022U 59009A   23359.88421238  .00013071  00000-0  81865-3 0  9998
2 00022  50.2773 164.1171 0120181 152.3748 208.3657 15.03802683663141
1 00022U 59009A   23360.54870376  .00012246  00000-0  76802-3 0  9992
2 00022  50.2774 160.9571 0120147 154.9487 205.7359 15.03820073663244
1 00022U 59009A   23360.88094686  .00011392  00000-0  71589-3 0  9999
2 00022  50.2775 159.3778 0120110 156.2363 204.4198 15.03827366663298
1 00022U 59009A   23361.54542742  .00011469  00000-0  72035-3 0  9996
2 00022  50.2775 156.2173 0120048 158.7982 201.8004 15.03843626663392
1 00022U 59009A   23361.87766514  .00010981  00000-0  69052-3 0  9990
2 00022  50.2777 154.6374 0120035 160.0888 200.4805 15.03850621663449
1 00022U 59009A   23362.60858233  .00011296  00000-0  70946-3 0  9996
2 00022  50.2779 151.1611 0119979 162.9023 197.6023 15.03867383663558
1 00022U 59009A   23362.87436839  .00010809  00000-0  67971-3 0  9992
2 00022  50.2780 149.8968 0119978 163.9324 196.5483 15.03872654663592
1 00022U 59009A   23363.60527458  .00011319  00000-0  71049-3 0  9990
2 00022  50.2783 146.4206 0119928 166.7568 193.6578 15.03889514663708
1 00022U 59009A   23363.87105647  .00011346  00000-0  71202-3 0  9992
2 00022  50.2785 145.1565 0119909 167.7873 192.6029 15.03895771663749
1 00022U 59009A   23364.60195096  .00010794  00000-0  67818-3 0  9995
2 00022  50.2789 141.6803 0119874 170.6221 189.7007 15.03912376663856
1 00022U 59009A   23364.86772884  .00009996  00000-0  62956-3 0  9999
2 00022  50.2790 140.4162 0119851 171.6568 188.6413 15.03917591663890
